<OBJECT_NAME>SL-24 DEB</OBJECT_NAME>
<OBJECT_ID>2009-041G</OBJECT_ID>
<CENTER_NAME>EARTH</CENTER_NAME>
<REF_FRAME>TEME</REF_FRAME>
<TIME_SYSTEM>UTC</TIME_SYSTEM>
<MEAN_ELEMENT_THEORY>SGP4</MEAN_ELEMENT_THEORY>
</metadata>
<data>
<meanElements>
<EPOCH>2012-11-20T00:22:02.555040</EPOCH>
<MEAN_MOTION>16.22636438</MEAN_MOTION>
<ECCENTRICITY>0.00124830</ECCENTRICITY>
<INCLINATION>98.0950</INCLINATION>
<RA_OF_ASC_NODE>288.0740</RA_OF_ASC_NODE>
<ARG_OF_PERICENTER>163.9238</ARG_OF_PERICENTER>
<MEAN_ANOMALY>196.6989</MEAN_ANOMALY>
Altitude 212

From <https://www.space-track.org/basicspacedata/query/class/gp/NORAD_CAT_ID/35687/format/xml/emptyresult/show> 


<OBJECT_NAME>COSMOS 1542 DEB</OBJECT_NAME>
<OBJECT_ID>LS</OBJECT_ID>
<CENTER_NAME>EARTH</CENTER_NAME>
<REF_FRAME>TEME</REF_FRAME>
<TIME_SYSTEM>UTC</TIME_SYSTEM>
<MEAN_ELEMENT_THEORY>SGP4</MEAN_ELEMENT_THEORY>
</metadata>
<data>
<meanElements>
<EPOCH>1985-10-12T20:22:27.013727</EPOCH>
<MEAN_MOTION>16.46740182</MEAN_MOTION>
<ECCENTRICITY>0.00094070</ECCENTRICITY>
<INCLINATION>70.3286</INCLINATION>
<RA_OF_ASC_NODE>126.0649</RA_OF_ASC_NODE>
<ARG_OF_PERICENTER>258.1212</ARG_OF_PERICENTER>
<MEAN_ANOMALY>101.8760</MEAN_ANOMALY>
Altitude 240


From <https://www.space-track.org/basicspacedata/query/class/gp/NORAD_CAT_ID/14848/format/xml/emptyresult/show> 

metadata>
<OBJECT_NAME>COSMOS 1790 DEB</OBJECT_NAME>
<OBJECT_ID>1986-085G</OBJECT_ID>
<CENTER_NAME>EARTH</CENTER_NAME>
<REF_FRAME>TEME</REF_FRAME>
<TIME_SYSTEM>UTC</TIME_SYSTEM>
<MEAN_ELEMENT_THEORY>SGP4</MEAN_ELEMENT_THEORY>
</metadata>
<data>
<meanElements>
<EPOCH>1986-12-10T06:48:48.419135</EPOCH>
<MEAN_MOTION>16.47946606</MEAN_MOTION>
<ECCENTRICITY>0.00054020</ECCENTRICITY>
<INCLINATION>72.8431</INCLINATION>
<RA_OF_ASC_NODE>133.1967</RA_OF_ASC_NODE>
<ARG_OF_PERICENTER>2.2971</ARG_OF_PERICENTER>
<MEAN_ANOMALY>358.2172</MEAN_ANOMALY>
Altitude 145

From <https://www.space-track.org/basicspacedata/query/class/gp/NORAD_CAT_ID/17089/format/xml/emptyresult/show> 


<OBJECT_NAME>DRAGON CRS-23 DEB</OBJECT_NAME>
<OBJECT_ID>2021-078B</OBJECT_ID>
<CENTER_NAME>EARTH</CENTER_NAME>
<REF_FRAME>TEME</REF_FRAME>
<TIME_SYSTEM>UTC</TIME_SYSTEM>
<MEAN_ELEMENT_THEORY>SGP4</MEAN_ELEMENT_THEORY>
</metadata>
<data>
<meanElements>
<EPOCH>2021-11-18T07:08:10.441248</EPOCH>
<MEAN_MOTION>16.45561132</MEAN_MOTION>
<ECCENTRICITY>0.00067060</ECCENTRICITY>
<INCLINATION>51.6150</INCLINATION>
<RA_OF_ASC_NODE>283.5758</RA_OF_ASC_NODE>
<ARG_OF_PERICENTER>336.5844</ARG_OF_PERICENTER>
<MEAN_ANOMALY>174.8364</MEAN_ANOMALY>
Altitude 150

From <https://www.space-track.org/basicspacedata/query/class/gp/NORAD_CAT_ID/49268/format/xml/emptyresult/show> 

<OBJECT_NAME>SL-24 DEB</OBJECT_NAME>
<OBJECT_ID>2007-026C</OBJECT_ID>
<CENTER_NAME>EARTH</CENTER_NAME>
<REF_FRAME>TEME</REF_FRAME>
<TIME_SYSTEM>UTC</TIME_SYSTEM>
<MEAN_ELEMENT_THEORY>SGP4</MEAN_ELEMENT_THEORY>
</metadata>
<data>
<meanElements>
<EPOCH>2012-03-09T00:25:40.912896</EPOCH>
<MEAN_MOTION>16.43993835</MEAN_MOTION>
<ECCENTRICITY>0.00087260</ECCENTRICITY>
<INCLINATION>97.3319</INCLINATION>
<RA_OF_ASC_NODE>107.5375</RA_OF_ASC_NODE>
<ARG_OF_PERICENTER>277.0000</ARG_OF_PERICENTER>
<MEAN_ANOMALY>83.1476</MEAN_ANOMALY>
Altitude 156

From <https://www.space-track.org/basicspacedata/query/class/gp/NORAD_CAT_ID/31700/format/xml/emptyresult/show> 



<OBJECT_NAME>SL-12 PLAT</OBJECT_NAME>
<OBJECT_ID>2004-015B</OBJECT_ID>
<CENTER_NAME>EARTH</CENTER_NAME>
<REF_FRAME>TEME</REF_FRAME>
<TIME_SYSTEM>UTC</TIME_SYSTEM>
<MEAN_ELEMENT_THEORY>SGP4</MEAN_ELEMENT_THEORY>
</metadata>
<data>
<meanElements>
<EPOCH>2004-04-27T11:07:04.856160</EPOCH>
<MEAN_MOTION>16.44044361</MEAN_MOTION>
<ECCENTRICITY>0.00006780</ECCENTRICITY>
<INCLINATION>51.6098</INCLINATION>
<RA_OF_ASC_NODE>170.5449</RA_OF_ASC_NODE>
<ARG_OF_PERICENTER>128.4837</ARG_OF_PERICENTER>
<MEAN_ANOMALY>231.8558</MEAN_ANOMALY>
Altitude 155
</meanElements>

From <https://www.space-track.org/basicspacedata/query/class/gp/NORAD_CAT_ID/28235/format/xml/emptyresult/show> 


<OBJECT_NAME>COSMOS 1467 DEB</OBJECT_NAME>
<OBJECT_ID>1983-052F</OBJECT_ID>
<CENTER_NAME>EARTH</CENTER_NAME>
<REF_FRAME>TEME</REF_FRAME>
<TIME_SYSTEM>UTC</TIME_SYSTEM>
<MEAN_ELEMENT_THEORY>SGP4</MEAN_ELEMENT_THEORY>
</metadata>
<data>
<meanElements>
<EPOCH>1983-09-13T07:43:01.485407</EPOCH>
<MEAN_MOTION>16.31571775</MEAN_MOTION>
<ECCENTRICITY>0.00104650</ECCENTRICITY>
<INCLINATION>72.8306</INCLINATION>
<RA_OF_ASC_NODE>171.3154</RA_OF_ASC_NODE>
<ARG_OF_PERICENTER>252.8494</ARG_OF_PERICENTER>
<MEAN_ANOMALY>107.2301</MEAN_ANOMALY>
Altitude 188

From <https://www.space-track.org/basicspacedata/query/class/gp/NORAD_CAT_ID/14118/format/xml/emptyresult/show> 


<OBJECT_NAME>INSPIRATION-4 DEB</OBJECT_NAME>
<OBJECT_ID>2021-084B</OBJECT_ID>
<CENTER_NAME>EARTH</CENTER_NAME>
<REF_FRAME>TEME</REF_FRAME>
<TIME_SYSTEM>UTC</TIME_SYSTEM>
<MEAN_ELEMENT_THEORY>SGP4</MEAN_ELEMENT_THEORY>
</metadata>
<data>
<meanElements>
<EPOCH>2022-03-08T12:33:59.107392</EPOCH>
<MEAN_MOTION>16.43980683</MEAN_MOTION>
<ECCENTRICITY>0.00014570</ECCENTRICITY>
<INCLINATION>51.6186</INCLINATION>
<RA_OF_ASC_NODE>72.4644</RA_OF_ASC_NODE>
<ARG_OF_PERICENTER>289.7003</ARG_OF_PERICENTER>
<MEAN_ANOMALY>70.6921</MEAN_ANOMALY>
Altitude 155


From <https://www.space-track.org/basicspacedata/query/class/gp/NORAD_CAT_ID/1684/format/xml/emptyresult/show> 


<OBJECT_NAME>SL-24 DEB</OBJECT_NAME>
<OBJECT_ID>2010-013C</OBJECT_ID>
<CENTER_NAME>EARTH</CENTER_NAME>
<REF_FRAME>TEME</REF_FRAME>
<TIME_SYSTEM>UTC</TIME_SYSTEM>
<MEAN_ELEMENT_THEORY>SGP4</MEAN_ELEMENT_THEORY>
</metadata>
<data>
<meanElements>
<EPOCH>2025-12-17T06:44:41.101728</EPOCH>
<MEAN_MOTION>14.74418943</MEAN_MOTION>
<ECCENTRICITY>0.00175966</ECCENTRICITY>
<INCLINATION>92.0331</INCLINATION>
<RA_OF_ASC_NODE>259.5656</RA_OF_ASC_NODE>
<ARG_OF_PERICENTER>305.4409</ARG_OF_PERICENTER>
<MEAN_ANOMALY>54.5168</MEAN_ANOMALY>
Altitude 645

From <https://www.space-track.org/basicspacedata/query/class/gp/NORAD_CAT_ID/36510/format/xml/emptyresult/show> 

<OBJECT_NAME>SL-6 DEB</OBJECT_NAME>
<OBJECT_ID>1982-115AB</OBJECT_ID>
<CENTER_NAME>EARTH</CENTER_NAME>
<REF_FRAME>TEME</REF_FRAME>
<TIME_SYSTEM>UTC</TIME_SYSTEM>
<MEAN_ELEMENT_THEORY>SGP4</MEAN_ELEMENT_THEORY>
</metadata>
<data>
<meanElements>
<EPOCH>1983-09-14T12:24:04.036031</EPOCH>
<MEAN_MOTION>16.26699654</MEAN_MOTION>
<ECCENTRICITY>0.00170020</ECCENTRICITY>
<INCLINATION>62.6427</INCLINATION>
<RA_OF_ASC_NODE>21.0160</RA_OF_ASC_NODE>
<ARG_OF_PERICENTER>348.2948</ARG_OF_PERICENTER>
<MEAN_ANOMALY>11.8891</MEAN_ANOMALY>
Altitude 202

From <https://www.space-track.org/basicspacedata/query/class/gp/NORAD_CAT_ID/13721/format/xml/emptyresult/show> 



From <https://www.space-track.org/basicspacedata/query/class/gp/NORAD_CAT_ID/13721/format/xml/emptyresult/show> 

<OBJECT_NAME>COSMOS 2121 DEB</OBJECT_NAME>
<OBJECT_ID>1991-004D</OBJECT_ID>
<CENTER_NAME>EARTH</CENTER_NAME>
<REF_FRAME>TEME</REF_FRAME>
<TIME_SYSTEM>UTC</TIME_SYSTEM>
<MEAN_ELEMENT_THEORY>SGP4</MEAN_ELEMENT_THEORY>
</metadata>
<data>
<meanElements>
<EPOCH>1991-02-12T13:02:12.441983</EPOCH>
<MEAN_MOTION>16.42041014</MEAN_MOTION>
<ECCENTRICITY>0.00087400</ECCENTRICITY>
<INCLINATION>82.5819</INCLINATION>
<RA_OF_ASC_NODE>271.8966</RA_OF_ASC_NODE>
<ARG_OF_PERICENTER>17.0353</ARG_OF_PERICENTER>
<MEAN_ANOMALY>343.7621</MEAN_ANOMALY>
Altitude 160

From <https://www.space-track.org/basicspacedata/query/class/gp/NORAD_CAT_ID/21096/format/xml/emptyresult/show> 

<OBJECT_NAME>FOTON-M2 DEB</OBJECT_NAME>
<OBJECT_ID>2005-020D</OBJECT_ID>
<CENTER_NAME>EARTH</CENTER_NAME>
<REF_FRAME>TEME</REF_FRAME>
<TIME_SYSTEM>UTC</TIME_SYSTEM>
<MEAN_ELEMENT_THEORY>SGP4</MEAN_ELEMENT_THEORY>
</metadata>
<data>
<meanElements>
<EPOCH>2005-07-29T14:02:32.698752</EPOCH>
<MEAN_MOTION>16.48322522</MEAN_MOTION>
<ECCENTRICITY>0.00084240</ECCENTRICITY>
<INCLINATION>62.9571</INCLINATION>
<RA_OF_ASC_NODE>227.7653</RA_OF_ASC_NODE>
<ARG_OF_PERICENTER>297.9822</ARG_OF_PERICENTER>
<MEAN_ANOMALY>208.9295</MEAN_ANOMALY>
Altitude 144

From <https://www.space-track.org/basicspacedata/query/class/gp/NORAD_CAT_ID/28694/format/xml/emptyresult/show> 

<OBJECT_NAME>COSMOS 1512 DEB</OBJECT_NAME>
<OBJECT_ID>1983-119M</OBJECT_ID>
<CENTER_NAME>EARTH</CENTER_NAME>
<REF_FRAME>TEME</REF_FRAME>
<TIME_SYSTEM>UTC</TIME_SYSTEM>
<MEAN_ELEMENT_THEORY>SGP4</MEAN_ELEMENT_THEORY>
</metadata>
<data>
<meanElements>
<EPOCH>1984-03-30T07:07:35.643648</EPOCH>
<MEAN_MOTION>16.31491253</MEAN_MOTION>
<ECCENTRICITY>0.00108370</ECCENTRICITY>
<INCLINATION>72.8354</INCLINATION>
<RA_OF_ASC_NODE>357.1569</RA_OF_ASC_NODE>
<ARG_OF_PERICENTER>149.8744</ARG_OF_PERICENTER>
<MEAN_ANOMALY>212.6133</MEAN_ANOMALY>
Altitude 189

From <https://www.space-track.org/basicspacedata/query/class/gp/NORAD_CAT_ID/14673/format/xml/emptyresult/show> 

<OBJECT_NAME>H-2A DEB</OBJECT_NAME>
<OBJECT_ID>2018-084E</OBJECT_ID>
<CENTER_NAME>EARTH</CENTER_NAME>
<REF_FRAME>TEME</REF_FRAME>
<TIME_SYSTEM>UTC</TIME_SYSTEM>
<MEAN_ELEMENT_THEORY>SGP4</MEAN_ELEMENT_THEORY>
</metadata>
<data>
<meanElements>
<EPOCH>2025-12-17T02:00:41.020704</EPOCH>
<MEAN_MOTION>15.54329410</MEAN_MOTION>
<ECCENTRICITY>0.00026972</ECCENTRICITY>
<INCLINATION>98.0292</INCLINATION>
<RA_OF_ASC_NODE>190.8446</RA_OF_ASC_NODE>
<ARG_OF_PERICENTER>245.0238</ARG_OF_PERICENTER>
<MEAN_ANOMALY>115.0734</MEAN_ANOMALY>
Altitude 404


From <https://www.space-track.org/basicspacedata/query/class/gp/NORAD_CAT_ID/43675/format/xml/emptyresult/show> 

